     2.11           N: GPS NAV DATA                         RINEX VERSION / TYPE
RTKCONV 2.4.2       Liu.TY              20181007 183200 UTC PGM / RUN BY / DATE 
log: C:\Users\time0\Desktop\PVT  Project\DataFile\WalkArou  COMMENT             
format: u-blox                                              COMMENT             
Antenna in CA548                                            COMMENT             
    1.0245E-08  7.4506E-09 -5.9605E-08 -5.9605E-08          ION ALPHA           
    8.8064E+04  0.0000E+00 -1.9661E+05 -6.5536E+04          ION BETA            
    -.186264514923E-08 -.266453525910E-14   147456      230 DELTA-UTC: A0,A1,T,W
    18                                                      LEAP SECONDS        
                                                            END OF HEADER       
30 18 10  7 18  0  0.0  .135228037834E-04 -.545696821064E-11  .000000000000E+00
     .760000000000E+02  .247500000000E+02  .543094050619E-08 -.255080377295E+01
     .122375786304E-05  .360697647557E-02  .252202153206E-05  .515367339516E+04
     .648000000000E+05 -.335276126862E-07 -.194267400561E+01 -.596046447754E-07
     .942665666357E+00  .321125000000E+03 -.297030776510E+01 -.872893502375E-08
     .575023952056E-10  .100000000000E+01  .202200000000E+04  .000000000000E+00
     .240000000000E+01  .000000000000E+00  .372529029846E-08  .760000000000E+02
     .645960000000E+05  .400000000000E+01
 7 18 10  7 18  0  0.0  .110885128379E-03 -.670752342558E-11  .000000000000E+00
     .710000000000E+02  .328750000000E+02  .502449500467E-08 -.252583326961E+01
     .161491334438E-05  .120944086229E-01  .286661088467E-05  .515363359642E+04
     .648000000000E+05  .931322574615E-07 -.197431010500E+01 -.186264514923E-06
     .957131486014E+00  .322187500000E+03 -.248580141753E+01 -.842570810742E-08
     .178578867098E-09  .100000000000E+01  .202200000000E+04  .000000000000E+00
     .240000000000E+01  .000000000000E+00 -.111758708954E-07  .710000000000E+02
     .645960000000E+05  .400000000000E+01
 5 18 10  7 18  0  0.0 -.119442120194E-05  .341060513165E-12  .000000000000E+00
     .200000000000E+02 -.101906250000E+03  .503413826349E-08  .101875142123E+01
    -.506639480591E-05  .567548943218E-02  .900775194168E-05  .515379751396E+04
     .648000000000E+05  .372529029846E-07  .217531469507E+01  .104308128357E-06
     .948486389180E+00  .199750000000E+03  .697365246645E+00 -.845999524990E-08
    -.603596570791E-09  .100000000000E+01  .202200000000E+04  .000000000000E+00
     .240000000000E+01  .000000000000E+00 -.111758708954E-07  .200000000000E+02
     .645960000000E+05  .400000000000E+01
 2 18 10  7 18  0  0.0 -.233934260905E-04 -.108002495836E-10  .000000000000E+00
     .790000000000E+02  .390312500000E+02  .528414867743E-08 -.156587937282E+01
     .253319740295E-05  .182209275663E-01  .214576721191E-05  .515356382370E+04
     .648000000000E+05  .275671482086E-06  .109179066238E+01  .284984707832E-06
     .951557548694E+00  .330562500000E+03 -.182517582530E+01 -.862357349216E-08
     .347871633107E-09  .100000000000E+01  .202200000000E+04  .000000000000E+00
     .240000000000E+01  .000000000000E+00 -.204890966415E-07  .790000000000E+02
     .645960000000E+05  .400000000000E+01
13 18 10  7 18  0  0.0 -.875839032233E-04  .795807864051E-12  .000000000000E+00
     .140000000000E+02  .732187500000E+02  .428660712582E-08 -.875379052125E+00
     .374019145966E-05  .346611102577E-02  .115204602480E-04  .515367471695E+04
     .648000000000E+05 -.428408384323E-07 -.291778771723E+01  .651925802231E-07
     .968720379252E+00  .158500000000E+03  .144361359223E+01 -.800104756146E-08
     .376801409577E-09  .100000000000E+01  .202200000000E+04  .000000000000E+00
     .240000000000E+01  .000000000000E+00 -.111758708954E-07  .140000000000E+02
     .645960000000E+05  .400000000000E+01
 9 18 10  7 18  0  0.0  .501997303218E-03 -.250111042988E-11  .000000000000E+00
     .150000000000E+02  .494062500000E+02  .447090051667E-08  .792000264413E+00
     .247359275818E-05  .121014588512E-02  .125654041767E-04  .515382170105E+04
     .648000000000E+05 -.614672899246E-07 -.305144214097E+01 -.372529029846E-08
     .953135030814E+00  .133750000000E+03  .168565040995E+01 -.800497629654E-08
     .236795577772E-09  .100000000000E+01  .202200000000E+04  .000000000000E+00
     .240000000000E+01  .000000000000E+00  .931322574615E-09  .150000000000E+02
     .646260000000E+05  .400000000000E+01
 6 18 10  7 18  0  0.0  .353058800101E-03 -.557065504836E-11  .000000000000E+00
     .650000000000E+02  .242500000000E+02  .489270380075E-08 -.158455820490E+01
     .135973095894E-05  .983274308965E-03  .275485217571E-05  .515370681953E+04
     .648000000000E+05 -.130385160446E-07  .114739600302E+01 -.204890966415E-07
     .972128378580E+00  .334812500000E+03 -.115518199682E+01 -.845463788389E-08
     .256439253153E-09  .100000000000E+01  .202200000000E+04  .000000000000E+00
     .240000000000E+01  .000000000000E+00  .465661287308E-08  .650000000000E+02
     .646860000000E+05  .400000000000E+01
28 18 10  7 17 59 44.0  .748534686863E-03  .204636307899E-11  .000000000000E+00
     .530000000000E+02 -.769062500000E+02  .385337479424E-08  .121036390461E+01
    -.425428152084E-05  .195880017709E-01  .101067125797E-04  .515369359016E+04
     .647840000000E+05 -.156462192535E-06 -.855358052685E+00 -.406056642532E-06
     .984586790826E+00  .201312500000E+03 -.151098220156E+01 -.794675958586E-08
    -.505735351622E-09  .100000000000E+01  .202200000000E+04  .000000000000E+00
     .240000000000E+01  .000000000000E+00 -.111758708954E-07  .530000000000E+02
     .645960000000E+05  .400000000000E+01
30 18 10  7 20  0  0.0  .134841538966E-04 -.545696821064E-11  .000000000000E+00
     .770000000000E+02  .306875000000E+02  .541093967307E-08 -.150036808721E+01
     .151991844177E-05  .360637495760E-02  .277720391750E-05  .515367541504E+04
     .720000000000E+05  .335276126862E-07 -.194273728559E+01 -.260770320892E-07
     .942666239821E+00  .315906250000E+03 -.297055646703E+01 -.875500753835E-08
     .113576159474E-09  .100000000000E+01  .202200000000E+04  .000000000000E+00
     .240000000000E+01  .000000000000E+00  .372529029846E-08  .770000000000E+02
     .648060000000E+05  .400000000000E+01
 5 18 10  7 20  0  0.0 -.119162723422E-05  .341060513165E-12  .000000000000E+00
     .210000000000E+02 -.999687500000E+02  .500663711796E-08  .206893070279E+01
    -.517442822456E-05  .567517161835E-02  .881776213646E-05  .515379675865E+04
     .720000000000E+05 -.162050127983E-06  .217525330810E+01 -.298023223877E-07
     .948483106391E+00  .204906250000E+03  .697296057934E+00 -.829998858498E-08
    -.452876006961E-09  .100000000000E+01  .202200000000E+04  .000000000000E+00
     .240000000000E+01  .000000000000E+00 -.111758708954E-07  .210000000000E+02
     .648060000000E+05  .400000000000E+01
 7 18 10  7 20  0  0.0  .110836699605E-03 -.670752342558E-11  .000000000000E+00
     .730000000000E+02  .347500000000E+02  .502770942428E-08 -.147562787936E+01
     .176392495632E-05  .120942721842E-01  .285729765892E-05  .515363362885E+04
     .720000000000E+05  .208616256714E-06 -.197437083512E+01 -.106170773506E-06
     .957132910896E+00  .321156250000E+03 -.248579795334E+01 -.846535261592E-08
     .183221917643E-09  .100000000000E+01  .202200000000E+04  .000000000000E+00
     .240000000000E+01  .000000000000E+00 -.111758708954E-07  .730000000000E+02
     .648060000000E+05  .400000000000E+01
 2 18 10  7 20  0  0.0 -.234711915255E-04 -.108002495836E-10  .000000000000E+00
     .880000000000E+02  .384062500000E+02  .540343936065E-08 -.515691185019E+00
     .220723450184E-05  .182205481688E-01  .315532088280E-05  .515356143761E+04
     .720000000000E+05 -.137835741043E-06  .109172647100E+01  .186264514923E-06
     .951558427908E+00  .320937500000E+03 -.182510853839E+01 -.902394731220E-08
     .383944564261E-09  .100000000000E+01  .202200000000E+04  .000000000000E+00
     .340000000000E+01  .000000000000E+00 -.204890966415E-07  .880000000000E+02
     .648060000000E+05  .400000000000E+01
13 18 10  7 20  0  0.0 -.875778496265E-04  .795807864051E-12  .000000000000E+00
     .150000000000E+02  .726250000000E+02  .435339562212E-08  .174809182487E+00
     .389665365219E-05  .346580962650E-02  .114925205708E-04  .515367421532E+04
     .720000000000E+05 -.372529029846E-07 -.291784540448E+01  .353902578354E-07
     .968723098817E+00  .161343750000E+03  .144360422370E+01 -.801033366255E-08
     .376801409577E-09  .100000000000E+01  .202200000000E+04  .000000000000E+00
     .240000000000E+01  .000000000000E+00 -.111758708954E-07  .150000000000E+02
     .648060000000E+05  .400000000000E+01
 6 18 10  7 20  0  0.0  .353018753231E-03 -.557065504836E-11  .000000000000E+00
     .810000000000E+02  .367812500000E+02  .476519848964E-08 -.532768497775E+00
     .168569386005E-05  .984285725281E-03  .290013849735E-05  .515371039772E+04
     .720000000000E+05  .335276126862E-07  .114733490278E+01 -.149011611938E-07
     .972130245264E+00  .329687500000E+03 -.115680967166E+01 -.847463871700E-08
     .287154818294E-09  .100000000000E+01  .202200000000E+04  .000000000000E+00
     .240000000000E+01  .000000000000E+00  .465661287308E-08  .810000000000E+02
     .648060000000E+05  .400000000000E+01
 9 18 10  7 20  0  0.0  .501979608089E-03 -.250111042988E-11  .000000000000E+00
     .160000000000E+02  .412187500000E+02  .448482966830E-08  .184248769357E+01
     .207871198654E-05  .121065764688E-02  .126734375954E-04  .515382106400E+04
     .720000000000E+05 -.931322574615E-08 -.305149964828E+01 -.502914190292E-07
     .953136982347E+00  .128906250000E+03  .168525250062E+01 -.795640284469E-08
     .247510309798E-09  .100000000000E+01  .202200000000E+04  .000000000000E+00
     .240000000000E+01  .000000000000E+00  .931322574615E-09  .160000000000E+02
     .648360000000E+05  .400000000000E+01
28 18 10  7 19 59 44.0  .748549588025E-03  .204636307899E-11  .000000000000E+00
     .650000000000E+02 -.876875000000E+02  .374622747398E-08  .226057143365E+01
    -.451877713203E-05  .195887521841E-01  .975467264652E-05  .515369175339E+04
     .719840000000E+05  .257045030594E-06 -.855412635621E+00 -.577419996262E-07
     .984585020695E+00  .199250000000E+03 -.151102685860E+01 -.745959643642E-08
    -.596810573842E-09  .100000000000E+01  .202200000000E+04  .000000000000E+00
     .240000000000E+01  .000000000000E+00 -.111758708954E-07  .650000000000E+02
     .648360000000E+05  .400000000000E+01
